OBJECT_NAME,OBJECT_ID,EPOCH,MEAN_MOTION,ECCENTRICITY,INCLINATION,RA_OF_ASC_NODE,ARG_OF_PERICENTER,MEAN_ANOMALY,EPHEMERIS_TYPE,CLASSIFICATION_TYPE,NORAD_CAT_ID,ELEMENT_SET_NO,REV_AT_EPOCH,BSTAR,MEAN_MOTION_DOT,MEAN_MOTION_DDOT
CHUANG XIN 26 (CX-26),2026-158A,2026-07-11T11:32:29.843808,14.25145244,.00048968,49.9853,296.0945,288.4346,71.6034,0,U,69972,999,17,.3036009E-4,-.88E-6,0
CZ-10B DEB,2026-158B,2026-07-11T18:16:47.889696,14.24885315,.0005677,49.9848,294.9117,299.9157,60.1192,0,U,69973,999,21,.10222E-3,.8E-6,0
CZ-10B R/B,2026-158C,2026-07-10T19:59:18.017088,14.64294088,.01976271,49.9651,298.6353,184.6042,175.3074,0,U,69974,999,8,.64179561E-4,.207E-5,0
